JY1SAT (JO-97)          
1 43803U 18099AX  26068.68634132  .00017774  00000+0  60804-3 0  9996
2 43803  97.4249 131.3625 0004723 256.6795 103.3919 15.30302629398391
DONGPO 10               
1 54689U 22167H   26068.94787196  .00015333  00000+0  49391-3 0  9996
2 54689  97.6850 235.0962 0006165 106.9526 253.2392 15.32278500180157
